[{"OBJECT_NAME":"IONOSFERA-M 4","OBJECT_ID":"2025-155B","EPOCH":"2026-03-09T23:04:46.382016","MEAN_MOTION":14.21468398,"ECCENTRICITY":0.0001693,"INCLINATION":98.5919,"RA_OF_ASC_NODE":33.341,"ARG_OF_PERICENTER":103.4918,"MEAN_ANOMALY":256.6448,"EPHEMERIS_TYPE":0,"CLASSIFICATION_TYPE":"U","NORAD_CAT_ID":64877,"ELEMENT_SET_NO":999,"REV_AT_EPOCH":3230,"BSTAR":7.6908035e-5,"MEAN_MOTION_DOT":1.25e-6,"MEAN_MOTION_DDOT":0},{"OBJECT_NAME":"OBJECT E","OBJECT_ID":"2024-018E","EPOCH":"2026-02-28T11:49:38.272512","MEAN_MOTION":14.54274509,"ECCENTRICITY":0.03649823,"INCLINATION":58.9635,"RA_OF_ASC_NODE":229.5952,"ARG_OF_PERICENTER":296.8367,"MEAN_ANOMALY":59.5785,"EPHEMERIS_TYPE":0,"CLASSIFICATION_TYPE":"U","NORAD_CAT_ID":65789,"ELEMENT_SET_NO":999,"REV_AT_EPOCH":9314,"BSTAR":0.0004744631,"MEAN_MOTION_DOT":4.754e-5,"MEAN_MOTION_DDOT":0}]
